{
  "type": "FeatureCollection",
  "features": [
    {
      "type": "Feature",
      "properties": {
        "norad_id": 40010,
        "name": "KAZEOSAT 2",
        "group": "resource",
        "lat": 56.47509848140282,
        "lon": 31.33153972964644,
        "alt_km": 604.009313197661,
        "timestamp": "2025-12-21T22:41:41.104639+00:00",
        "meta_object_name": "KAZEOSAT 2",
        "meta_object_id": "2014-033A",
        "meta_epoch": "2025-12-21T14:03:32.580000",
        "meta_mean_motion": 14.8517982,
        "meta_eccentricity": 0.00084531,
        "meta_inclination": 97.5495,
        "meta_ra_of_asc_node": 199.443,
        "meta_arg_of_pericenter": 176.0651,
        "meta_mean_anomaly": 184.0633,
        "meta_ephemeris_type": 0,
        "meta_classification_type": "U",
        "meta_norad_cat_id": 40010,
        "meta_element_set_no": 999,
        "meta_rev_at_epoch": 62259,
        "meta_bstar": 5.3511153e-05,
        "meta_mean_motion_dot": 4.08e-06,
        "meta_mean_motion_ddot": 0,
        "tle_line1": "1 40010U 14033A   25355.58579375  .00000408  00000+0  53511-4 0  9995",
        "tle_line2": "2 40010  97.5495 199.4430 0008453 176.0651 184.0633 14.85179820622596"
      },
      "geometry": {
        "type": "Point",
        "coordinates": [
          31.33153972964644,
          56.47509848140282
        ]
      }
    },
    {
      "type": "Feature",
      "properties": {
        "norad_id": 40011,
        "name": "HODOYOSHI-4",
        "group": "resource",
        "lat": -70.8931730324524,
        "lon": -153.14378269838855,
        "alt_km": 620.8161911053139,
        "timestamp": "2025-12-21T22:41:41.104649+00:00",
        "meta_object_name": "HODOYOSHI-4",
        "meta_object_id": "2014-033B",
        "meta_epoch": "2025-12-21T13:20:04.076736",
        "meta_mean_motion": 14.87511329,
        "meta_eccentricity": 0.00239003,
        "meta_inclination": 97.5406,
        "meta_ra_of_asc_node": 184.0042,
        "meta_arg_of_pericenter": 170.9546,
        "meta_mean_anomaly": 189.2106,
        "meta_ephemeris_type": 0,
        "meta_classification_type": "U",
        "meta_norad_cat_id": 40011,
        "meta_element_set_no": 999,
        "meta_rev_at_epoch": 62239,
        "meta_bstar": 0.00018602853,
        "meta_mean_motion_dot": 1.643e-05,
        "meta_mean_motion_ddot": 0,
        "tle_line1": "1 40011U 14033B   25355.55560274  .00001643  00000+0  18603-3 0  9995",
        "tle_line2": "2 40011  97.5406 184.0042 0023900 170.9546 189.2106 14.87511329622394"
      },
      "geometry": {
        "type": "Point",
        "coordinates": [
          -153.14378269838855,
          -70.8931730324524
        ]
      }
    },
    {
      "type": "Feature",
      "properties": {
        "norad_id": 40013,
        "name": "DEIMOS-2",
        "group": "resource",
        "lat": -81.63776549960724,
        "lon": -13.947172233951218,
        "alt_km": 596.9269975854131,
        "timestamp": "2025-12-21T22:41:41.104660+00:00",
        "meta_object_name": "DEIMOS-2",
        "meta_object_id": "2014-033D",
        "meta_epoch": "2025-12-21T15:04:14.257920",
        "meta_mean_motion": 14.93010817,
        "meta_eccentricity": 0.00015153,
        "meta_inclination": 97.6068,
        "meta_ra_of_asc_node": 231.1347,
        "meta_arg_of_pericenter": 103.9853,
        "meta_mean_anomaly": 256.1536,
        "meta_ephemeris_type": 0,
        "meta_classification_type": "U",
        "meta_norad_cat_id": 40013,
        "meta_element_set_no": 999,
        "meta_rev_at_epoch": 61122,
        "meta_bstar": 0.0001826504,
        "meta_mean_motion_dot": 1.845e-05,
        "meta_mean_motion_ddot": 0,
        "tle_line1": "1 40013U 14033D   25355.62794280  .00001845  00000+0  18265-3 0  9999",
        "tle_line2": "2 40013  97.6068 231.1347 0001515 103.9853 256.1536 14.93010817611222"
      },
      "geometry": {
        "type": "Point",
        "coordinates": [
          -13.947172233951218,
          -81.63776549960724
        ]
      }
    },
    {
      "type": "Feature",
      "properties": {
        "norad_id": 40015,
        "name": "HODOYOSHI-3",
        "group": "resource",
        "lat": 55.26887573295964,
        "lon": -7.484329653590129,
        "alt_km": 609.8711519492572,
        "timestamp": "2025-12-21T22:41:41.104670+00:00",
        "meta_object_name": "HODOYOSHI-3",
        "meta_object_id": "2014-033F",
        "meta_epoch": "2025-12-21T10:48:52.181280",
        "meta_mean_motion": 14.84833803,
        "meta_eccentricity": 0.00323005,
        "meta_inclination": 97.6204,
        "meta_ra_of_asc_node": 160.9071,
        "meta_arg_of_pericenter": 218.2843,
        "meta_mean_anomaly": 141.608,
        "meta_ephemeris_type": 0,
        "meta_classification_type": "U",
        "meta_norad_cat_id": 40015,
        "meta_element_set_no": 999,
        "meta_rev_at_epoch": 62124,
        "meta_bstar": 0.00015524065,
        "meta_mean_motion_dot": 1.278e-05,
        "meta_mean_motion_ddot": 0,
        "tle_line1": "1 40015U 14033F   25355.45060395  .00001278  00000+0  15524-3 0  9990",
        "tle_line2": "2 40015  97.6204 160.9071 0032300 218.2843 141.6080 14.84833803621247"
      },
      "geometry": {
        "type": "Point",
        "coordinates": [
          -7.484329653590129,
          55.26887573295964
        ]
      }
    },
    {
      "type": "Feature",
      "properties": {
        "norad_id": 40053,
        "name": "SPOT 7",
        "group": "resource",
        "lat": 48.84670116938647,
        "lon": -112.8246744840783,
        "alt_km": 685.610085362011,
        "timestamp": "2025-12-21T22:41:41.104680+00:00",
        "meta_object_name": "SPOT 7",
        "meta_object_id": "2014-034A",
        "meta_epoch": "2025-12-21T13:52:47.989344",
        "meta_mean_motion": 14.60744768,
        "meta_eccentricity": 0.00015621,
        "meta_inclination": 98.0899,
        "meta_ra_of_asc_node": 57.4505,
        "meta_arg_of_pericenter": 84.4705,
        "meta_mean_anomaly": 275.6674,
        "meta_ephemeris_type": 0,
        "meta_classification_type": "U",
        "meta_norad_cat_id": 40053,
        "meta_element_set_no": 999,
        "meta_rev_at_epoch": 61120,
        "meta_bstar": 0.00013696757,
        "meta_mean_motion_dot": 6.22e-06,
        "meta_mean_motion_ddot": 0,
        "tle_line1": "1 40053U 14034A   25355.57833321  .00000622  00000+0  13697-3 0  9994",
        "tle_line2": "2 40053  98.0899  57.4505 0001562  84.4705 275.6674 14.60744768611209"
      },
      "geometry": {
        "type": "Point",
        "coordinates": [
          -112.8246744840783,
          48.84670116938647
        ]
      }
    },
    {
      "type": "Feature",
      "properties": {
        "norad_id": 40072,
        "name": "SKYSAT-B",
        "group": "resource",
        "lat": -45.59043025985605,
        "lon": 111.50212833887643,
        "alt_km": 613.9288408175316,
        "timestamp": "2025-12-21T22:41:41.104690+00:00",
        "meta_object_name": "SKYSAT-B",
        "meta_object_id": "2014-037D",
        "meta_epoch": "2025-12-21T08:45:54.318528",
        "meta_mean_motion": 14.87355619,
        "meta_eccentricity": 0.00066797,
        "meta_inclination": 98.3624,
        "meta_ra_of_asc_node": 299.5272,
        "meta_arg_of_pericenter": 125.9146,
        "meta_mean_anomaly": 234.2689,
        "meta_ephemeris_type": 0,
        "meta_classification_type": "U",
        "meta_norad_cat_id": 40072,
        "meta_element_set_no": 999,
        "meta_rev_at_epoch": 61952,
        "meta_bstar": 0.00015309059,
        "meta_mean_motion_dot": 1.322e-05,
        "meta_mean_motion_ddot": 0,
        "tle_line1": "1 40072U 14037D   25355.36521202  .00001322  00000+0  15309-3 0  9997",
        "tle_line2": "2 40072  98.3624 299.5272 0006679 125.9146 234.2689 14.87355619619525"
      },
      "geometry": {
        "type": "Point",
        "coordinates": [
          111.50212833887643,
          -45.59043025985605
        ]
      }
    },
    {
      "type": "Feature",
      "properties": {
        "norad_id": 40115,
        "name": "WORLDVIEW-3 (WV-3)",
        "group": "resource",
        "lat": 42.97047790103642,
        "lon": 60.702683092019946,
        "alt_km": 611.0948449443804,
        "timestamp": "2025-12-21T22:41:41.104701+00:00",
        "meta_object_name": "WORLDVIEW-3 (WV-3)",
        "meta_object_id": "2014-048A",
        "meta_epoch": "2025-12-21T11:10:36.966432",
        "meta_mean_motion": 14.84666267,
        "meta_eccentricity": 0.00018464,
        "meta_inclination": 97.8769,
        "meta_ra_of_asc_node": 67.6385,
        "meta_arg_of_pericenter": 134.9342,
        "meta_mean_anomaly": 225.2022,
        "meta_ephemeris_type": 0,
        "meta_classification_type": "U",
        "meta_norad_cat_id": 40115,
        "meta_element_set_no": 999,
        "meta_rev_at_epoch": 61553,
        "meta_bstar": 0.00010610788,
        "meta_mean_motion_dot": 8.44e-06,
        "meta_mean_motion_ddot": 0,
        "tle_line1": "1 40115U 14048A   25355.46570563  .00000844  00000+0  10611-3 0  9991",
        "tle_line2": "2 40115  97.8769  67.6385 0001846 134.9342 225.2022 14.84666267615534"
      },
      "geometry": {
        "type": "Point",
        "coordinates": [
          60.702683092019946,
          42.97047790103642
        ]
      }
    }
  ]
}